stk.v.9.0

# WrittenBy    STK_v9.2.1

BEGIN Ephemeris

NumberOfEphemerisPoints 91

ScenarioEpoch            19 May 2020 04:00:00.000

# Epoch in JDate format: 2458988.66666666666667
# Epoch in YYDDD format:   20140.16666666666667


InterpolationMethod     Lagrange

InterpolationSamplesM1      5

CentralBody             Earth

CoordinateSystem        ICRF 

# Time of first point: 19 May 2020 04:00:00.000000000 UTCG = 2458988.66666666666667 JDate = 20140.16666666666667 YYDDD

EphemerisTimePosVel

0.00000000000000e+000 2.41788494385977e+005 4.16691700854934e+006 5.52968563831741e+006 -7.58046790416538e+003 1.59309928648047e+002 2.11411415845108e+002
6.00000000000000e+001 -2.13234028870036e+005 4.16748163173801e+006 5.53043491859611e+006 -7.58149506836157e+003 -1.40495923972266e+002 -1.86444388366171e+002
1.20000000000000e+002 -6.67336756767465e+005 4.15006962013642e+006 5.50732839876622e+006 -7.54981908469738e+003 -4.39695740588597e+002 -5.83495955636649e+002
1.80000000000000e+002 -1.11856089509484e+006 4.11475608130379e+006 5.46046574992529e+006 -7.48557658906956e+003 -7.36998908234191e+002 -9.78030584712079e+002
2.40000000000000e+002 -1.56496006657684e+006 4.06169334190809e+006 5.39004911638923e+006 -7.38904469460876e+003 -1.03112299522991e+003 -1.36834643127358e+003
3.00000000000000e+002 -2.00460870666743e+006 3.99111029065750e+006 5.29638224373297e+006 -7.26063979633856e+003 -1.32079928301569e+003 -1.75275984892593e+003
3.60000000000000e+002 -2.43561036956615e+006 3.90331139097787e+006 5.17986916856914e+006 -7.10091577503530e+003 -1.60477823882976e+003 -2.12961265168815e+003
4.20000000000000e+002 -2.85610590862941e+006 3.79867536769488e+006 5.04101247571650e+006 -6.91056160803633e+003 -1.88183490562901e+003 -2.49727926665952e+003
4.80000000000000e+002 -3.26428149588993e+006 3.67765357338610e+006 4.88041113027581e+006 -6.69039839730283e+003 -2.15077418600083e+003 -2.85417374600725e+003
5.40000000000000e+002 -3.65837644609201e+006 3.54076804144967e+006 4.69875789396483e+006 -6.44137582755650e+003 -2.41043599727389e+003 -3.19875660802974e+003
6.00000000000000e+002 -4.03669081149298e+006 3.38860923428788e+006 4.49683633685684e+006 -6.16456806976831e+003 -2.65970027559124e+003 -3.52954147778573e+003
6.60000000000000e+002 -4.39759271467052e+006 3.22183349631881e+006 4.27551745741306e+006 -5.86116914766974e+003 -2.89749180736022e+003 -3.84510149864495e+003
7.20000000000000e+002 -4.73952538770535e+006 3.04116022280278e+006 4.03575592538840e+006 -5.53248778727338e+003 -3.12278486723865e+003 -4.14407548710363e+003
7.80000000000000e+002 -5.06101388737534e+006 2.84736875669589e+006 3.77858596381702e+006 -5.17994177161949e+003 -3.33460764265093e+003 -4.42517380431576e+003
8.40000000000000e+002 -5.36067145739493e+006 2.64129502691624e+006 3.50511688784094e+006 -4.80505182510000e+003 -3.53204642574894e+003 -4.68718391901301e+003
9.00000000000000e+002 -5.63720551025579e+006 2.42382794252392e+006 3.21652831962522e+006 -4.40943505373974e+003 -3.71424955473527e+003 -4.92897563781735e+003
9.60000000000000e+002 -5.88942320286593e+006 2.19590555836845e+006 2.91406510000033e+006 -3.99479796973099e+003 -3.88043108754781e+003 -5.14950598038517e+003
1.02000000000000e+003 -6.11623658193646e+006 1.95851102874362e+006 2.59903191878069e+006 -3.56292913031008e+003 -4.02987419205908e+003 -5.34782367835374e+003
1.08000000000000e+003 -6.31666727692098e+006 1.71266836650357e+006 2.27278768692165e+006 -3.11569142272874e+003 -4.16193423816653e+003 -5.52307327868358e+003
1.14000000000000e+003 -6.48985072026459e+006 1.45943802593351e+006 1.93673967479098e+006 -2.65501402859929e+003 -4.27604157843580e+003 -5.67449883369679e+003
1.20000000000000e+003 -6.63503987675805e+006 1.19991232842860e+006 1.59233744183966e+006 -2.18288410227589e+003 -4.37170400530265e+003 -5.80144716189408e+003
1.26000000000000e+003 -6.75160846591057e+006 9.35210750712429e+005 1.24106658385666e+006 -1.70133819916755e+003 -4.44850887423427e+003 -5.90337066548503e+003
1.32000000000000e+003 -6.83905366344108e+006 6.66475095919717e+005 8.84442324779226e+005 -1.21245349095729e+003 -4.50612488369154e+003 -5.97982969247773e+003
1.38000000000000e+003 -6.89699827023535e+006 3.94864568372938e+005 5.24002980700686e+005 -7.18338805621001e+002 -4.54430350421431e+003 -6.03049443313908e+003
1.44000000000000e+003 -6.92519233941263e+006 1.21550773298068e+005 1.61303324269158e+005 -2.21125530895385e+002 -4.56288005046535e+003 -6.05514634264511e+003
1.50000000000000e+003 -6.92351425448371e+006 -1.52287336951562e+005 -2.02092121899933e+005 2.77041579566770e+002 -4.56177439160855e+003 -6.05367908378472e+003
1.56000000000000e+003 -6.89197125394960e+006 -4.25468548363604e+005 -5.64615833868274e+005 7.74013657695808e+002 -4.54099129695718e+003 -6.02609898565037e+003
1.62000000000000e+003 -6.83069940007783e+006 -6.96814480490807e+005 -9.24704047965441e+005 1.26764699025219e+003 -4.50062041540124e+003 -5.97252501633731e+003
1.68000000000000e+003 -6.73996299199131e+006 -9.65154669452409e+005 -1.28080350615958e+006 1.75581226583786e+003 -4.44083588870260e+003 -5.89318826976885e+003
1.74000000000000e+003 -6.62015342560117e+006 -1.22933161678705e+006 -1.63137815611150e+006 2.23640375978455e+003 -4.36189560032603e+003 -5.78843096886150e+003
1.80000000000000e+003 -6.47178750530145e+006 -1.48820578237867e+006 -1.97491577701117e+006 2.70734841729961e+003 -4.26414006304633e+003 -5.65870498932976e+003
1.86000000000000e+003 -6.29550521470821e+006 -1.74066049991830e+006 -2.30993450261578e+006 3.16661479568868e+003 -4.14799095012993e+003 -5.50456991049824e+003
1.92000000000000e+003 -6.09206695605907e+006 -1.98560679369847e+006 -2.63498921335186e+006 3.61222182708268e+003 -4.01394927642671e+003 -5.32669060152905e+003
1.98000000000000e+003 -5.86235027018113e+006 -2.22198807596291e+006 -2.94867776990888e+006 4.04224736387034e+003 -3.86259323721808e+003 -5.12583435347626e+003
2.04000000000000e+003 -5.60734605117597e+006 -2.44878470454928e+006 -3.24964706143539e+006 4.45483646997553e+003 -3.69457571414350e+003 -4.90286756953866e+003
2.10000000000000e+003 -5.32815427214967e+006 -2.66501838116523e+006 -3.53659884224853e+006 4.84820942221428e+003 -3.51062145896377e+003 -4.65875202778735e+003
2.16000000000000e+003 -5.02597924042534e+006 -2.86975637132567e+006 -3.80829533187990e+006 5.22066938721723e+003 -3.31152396730902e+003 -4.39454073248931e+003
2.22000000000000e+003 -4.70212440270485e+006 -3.06211552774836e+006 -4.06356455430191e+006 5.57060974080306e+003 -3.09814205589675e+003 -4.11137337192219e+003
2.28000000000000e+003 -4.35798672258811e+006 -3.24126609985272e+006 -4.30130539330333e+006 5.89652099822998e+003 -2.87139615798407e+003 -3.81047140227350e+003
2.34000000000000e+003 -3.99505065470255e+006 -3.40643531292926e+006 -4.52049234220767e+006 6.19699732543163e+003 -2.63226435303412e+003 -3.49313277882992e+003
2.40000000000000e+003 -3.61488174143592e+006 -3.55691070154096e+006 -4.72017992744615e+006 6.47074260315074e+003 -2.38177814772266e+003 -3.16072635718401e+003
2.46000000000000e+003 -3.21911985989297e+006 -3.69204318277756e+006 -4.89950678690390e+006 6.71657601781260e+003 -2.12101802648391e+003 -2.81468598860901e+003
2.52000000000000e+003 -2.80947214820582e+006 -3.81124985610627e+006 -5.05769938544736e+006 6.93343715502186e+003 -1.85110879078828e+003 -2.45650433507161e+003
2.58000000000000e+003 -2.38770564171053e+006 -3.91401651774161e+006 -5.19407535160576e+006 7.12039057371165e+003 -1.57321470725658e+003 -2.08772643056191e+003
2.64000000000000e+003 -1.95563965075421e+006 -3.99989987868843e+006 -5.30804642101359e+006 7.27662984121409e+003 -1.28853448553925e+003 -1.70994301651418e+003
2.70000000000000e+003 -1.51513791301134e+006 -4.06852947689057e+006 -5.39912097391762e+006 7.40148101184688e+003 -9.98296107623996e+002 -1.32478368006624e+003
2.76000000000000e+003 -1.06810055416058e+006 -4.11960927523695e+006 -5.46690615580261e+006 7.49440553401077e+003 -7.03751530875698e+002 -9.33909824756031e+002
2.82000000000000e+003 -6.16455891600260e+005 -4.15291893853210e+006 -5.51110957198836e+006 7.55500257325809e+003 -4.06171287657439e+002 -5.39007503976698e+002
2.88000000000000e+003 -1.62152116557429e+005 -4.16831478392268e+006 -5.53154054888839e+006 7.58301074131168e+003 -1.06839004827320e+002 -1.41780148103173e+002
2.94000000000000e+003 2.92851109529802e+005 -4.16573040068051e+006 -5.52811095648978e+006 7.57830922357586e+003 1.92954133248451e+002 2.56058783337612e+002
3.00000000000000e+003 7.46591108107199e+005 -4.14517693666843e+006 -5.50083558850620e+006 7.54091830027615e+003 4.91914954282135e+002 6.52793192757748e+002
3.06000000000000e+003 1.19711064961386e+006 -4.10674305025352e+006 -5.44983209856454e+006 7.47099925897948e+003 7.88753876226053e+002 1.04671174697881e+003
3.12000000000000e+003 1.64246639608713e+006 -4.05059452787486e+006 -5.37532049270030e+006 7.36885369887244e+003 1.08219046994749e+003 1.43611525915077e+003
3.18000000000000e+003 2.08073728384553e+006 -3.97697356891566e+006 -5.27762218035076e+006 7.23492222979853e+003 1.37095898242207e+003 1.81932401827719e+003
3.24000000000000e+003 2.51003281009031e+006 -3.88619774096448e+006 -5.15715858793984e+006 7.06978257166612e+003 1.65381379662099e+003 2.19468503473027e+003
3.30000000000000e+003 2.92850118768135e+006 -3.77865860997194e+006 -5.01444934103465e+006 6.87414706242556e+003 1.92953480454070e+003 2.56057917050209e+003
3.36000000000000e+003 3.33433733291102e+006 -3.65482005121199e+006 -4.85011002291531e+006 6.64885958536473e+003 2.19693267019815e+003 2.91542812343515e+003
3.42000000000000e+003 3.72579065182064e+006 -3.51521624833328e+006 -4.66484951922660e+006 6.39489192897746e+003 2.45485395988938e+003 3.25770123530556e+003
3.48000000000000e+003 4.10117259147265e+006 -3.36044938913204e+006 -4.45946696016515e+006 6.11333959510655e+003 2.70218611758197e+003 3.58592209439172e+003
3.54000000000000e+003 4.45886392360588e+006 -3.19118706798575e+006 -4.23484827339250e+006 5.80541707344329e+003 2.93786226397960e+003 3.89867490404814e+003
END Ephemeris
